{"fetched_at":"2026-03-29T16:36:15Z","count":15609,"tles":[{"name":"STARLINK-3260","line1":"1 50205U 21125BB  26087.81399364 -.00005083  00000+0 -30189-3 0  9990","line2":"2 50205  53.2161 123.2683 0001642  80.2877 279.8300 15.08792871240049","category":"Starlink"}]}